KL-ALPHA A              
1 44785U 19077A   24282.74999461  .00000140  00000+0  18274-3 0  9998
2 44785  88.9021 290.9214 0012996 104.4688 255.7909 13.55946301242195
CARTOSAT-3              
1 44804U 19081A   24282.86126945  .00016697  00000+0  79099-3 0  9993
2 44804  97.5182 340.2360 0015551 142.5689 217.6632 15.19288066269891
JILIN-1 GAOFEN 2B       
1 44836U 19086A   24282.89777614  .00026485  00000+0  12413-2 0  9993
2 44836  97.5639 348.4451 0011227  61.5062 298.7302 15.19613581267060
DUCHIFAT-3              
1 44854U 19089C   24282.63830150  .00112773  00000+0  46213-2 0  9994
2 44854  36.9549  77.3521 0008949 342.6714  17.3729 15.22952039265533
ANGELS                  
1 44876U 19092D   24282.80670441  .00033483  00000+0  11480-2 0  9994
2 44876  97.4712 111.7321 0007853 279.5808  80.4545 15.30080017266712
TIANQIN 1 (CAS-6)       
1 44879U 19093A   24282.85007032  .00014500  00000+0  15435-2 0  9996
2 44879  97.8283   0.9140 0011543 302.0277  57.9818 14.88985434260099
ETRSS-1                 
1 44880U 19093B   24282.81509487  .00014800  00000+0  15694-2 0  9995
2 44880  97.8284   1.0480 0011956 303.0361  56.9707 14.89132562260086
TIANYAN 01              
1 44881U 19093C   24282.85568261  .00004572  00000+0  54942-3 0  9990
2 44881  97.8187 357.4353 0013106 314.7575  45.2572 14.84387584259902
TIANYAN 02              
1 44882U 19093D   24282.85682381  .00022092  00000+0  21292-2 0  9999
2 44882  97.8382   4.4356 0011877 295.0473  64.9513 14.92875064260238
CBERS 4A                
1 44883U 19093E   24282.82791702  .00006988  00000+0  89552-3 0  9995
2 44883  97.8205 356.2670 0000626  71.4222 288.7059 14.81586259259814
WEILAI 1R               
1 44884U 19093F   24282.86977179  .00016428  00000+0  16451-2 0  9991
2 44884  97.8288   3.0043 0010375 301.0462  58.9737 14.91426451260233
FLORIPASAT-1            
1 44885U 19093G   24282.81032743  .00019058  00000+0  18417-2 0  9992
2 44885  97.8336   4.6554 0011008 299.9953  60.0173 14.92809419260302
SHUNTIAN                
1 44886U 19093H   24282.85761830  .00012828  00000+0  13547-2 0  9990
2 44886  97.8389   4.1845 0012222 313.5688  46.4514 14.89331781260233
2019-093L               
1 44889U 19093L   24282.82776703  .00014872  00000+0  16138-2 0  9995
2 44889  97.8141 357.7024 0012301 297.2773  62.7190 14.88191990259907
ELEKTRO-L 3             
1 44903U 19095A   24282.84529795 -.00000089  00000+0  00000+0 0  9997
2 44903   0.0528 330.8127 0001006 259.6592 167.8517  1.00272640 17517
GONETS-M 14             
1 44905U 19096A   24282.84257842  .00000057  00000+0  34219-3 0  9998
2 44905  82.5179 106.7497 0014180  59.6736 300.5745 12.42878699217112
GONETS-M 15             
1 44906U 19096B   24282.86832080  .00000041  00000+0  22124-3 0  9999
2 44906  82.5199 107.0898 0016169  80.8385 279.4523 12.42881171217082
GONETS-M 16             
1 44907U 19096C   24282.89408305  .00000037  00000+0  19565-3 0  9992
2 44907  82.5144 106.3011 0012056 119.9644 240.2634 12.42882348217070
RS-44 & BREEZE-KM R/B   
1 44909U 19096E   24282.78731467  .00000051  00000+0  15377-3 0  9993
2 44909  82.5259  29.2755 0218170 145.4232 216.1281 12.79734844223501
JILIN-1 KUANFU 01       
1 45016U 20003A   24282.83161958  .00019136  00000+0  10251-2 0  9990
2 45016  97.5692 354.8359 0014139  71.3317 288.9449 15.14965765262242
XINGYUN-2 01            
1 45602U 20028A   24282.87975867  .00010331  00000+0  69563-3 0  9993
2 45602  97.4586 279.8337 0010758 152.8752 207.3040 15.06837794241854
XINGYUN-2 02            
1 45603U 20028B   24282.87094139  .00008259  00000+0  55647-3 0  9992
2 45603  97.5160 290.3895 0010657 219.2407 140.8049 15.06884715241859
HAIYANG-1D              
1 45721U 20036A   24282.85873007  .00001168  00000+0  43310-3 0  9995
2 45721  98.5985 222.6610 0003312 106.1356 254.0193 14.34119738226639
M2 PATHFINDER           
1 45727U 20037E   24282.75610539  .00021286  00000+0  17680-2 0  9993
2 45727  97.7810  98.7497 0011548 105.7685 254.4812 14.98715507232947
GAOFEN DUOMO (GFDM)     
1 45856U 20042A   24282.85110711  .00005039  00000+0  72489-3 0  9997
2 45856  97.8566 351.1039 0010744 278.0576  81.9415 14.76780982230043
ZINYUAN-3               
1 45939U 20051A   24282.89534719  .00021391  00000+0  93900-3 0  9991
2 45939  97.3548 356.6750 0011082 332.2163  27.8480 15.21907499233646
TIANTUO 5               
1 46234U 20058C   24282.85473679  .00072538  00000+0  13080-2 0  9999
2 46234  97.2836 341.1788 0007860 329.0591  31.0196 15.49487501230322
TYVAK-0172              
1 46267U 20059C   24282.81768952  .00091977  00000+0  53246-2 0  9999
2 46267  97.8090 127.3256 0001231 334.5817  25.5352 15.11811303223872
ION-MK01                
1 46274U 20061C   24282.76471322  .00069986  00000+0  20138-2 0  9995
2 46274  97.2852 345.0170 0004620  58.2348 301.9345 15.35509864227372
UPMSAT-2                
1 46276U 20061E   24282.72125873  .00094628  00000+0  22864-2 0  9999
2 46276  97.2826 348.0249 0002302  99.7931 260.3576 15.40805485227613
NEMO-HD                 
1 46277U 20061F   24282.85383779  .00021831  00000+0  77155-3 0  9995
2 46277  97.2832 343.0377 0003073  98.8580 261.3008 15.29201220227293
DIDO 3                  
1 46284U 20061N   24282.15860789  .00257706  00000+0  53783-2 0  9999
2 46284  97.3329 348.0722 0003131 155.9168 204.2227 15.44546144226803
FLOCK 4V-14             
1 46286U 20061Q   24282.76021795  .00198387  00000+0  23217-2 0  9992
2 46286  97.3374 358.8599 0003348 181.0668 179.0582 15.60893188227570
AMICALSAT               
1 46287U 20061R   24282.70527931  .00266646  00000+0  41376-2 0  9990
2 46287  97.3328 350.9297 0002599 173.2407 186.8881 15.53033503227071
3CAT-5A                 
1 46292U 20061W   24282.73694373  .00043759  00000+0  17374-2 0  9993
2 46292  97.3335 341.1399 0003686 147.8975 212.2488 15.25195230226414
3CAT-5B                 
1 46293U 20061X   24282.71659329  .00049711  00000+0  19649-2 0  9995
2 46293  97.3345 341.4592 0003584 147.8033 212.3424 15.25312447226407
OSM-1 CICERO            
1 46294U 20061Y   24282.71154966  .00109481  00000+0  27956-2 0  9994
2 46294  97.3365 348.1191 0003844 135.3738 224.7818 15.39051085226869
FLOCK 4V-13             
1 46297U 20061AB  24282.72782137  .00205544  00000+0  25811-2 0  9990
2 46297  97.3355 358.4789 0001556 201.8149 158.3041 15.59010856227483
KEPLER-2 (TARS)         
1 46319U 20061AZ  24282.73607857  .00371735  00000+0  40253-2 0  9994
2 46319  97.3312 354.9567 0003499 245.2066 114.8828 15.62353802227333
NAPA-1                  
1 46320U 20061BA  24282.88179997  .00038065  00000+0  14266-2 0  9992
2 46320  97.3398 344.1602 0003069 101.4704 258.6879 15.27152930226629
JILIN-1 GAOFEN 3B       
1 46454U 20065A   24282.89014581  .00045775  00000+0  14506-2 0  9995
2 46454  97.3253 326.1534 0010218 162.6448 197.5145 15.32526978224807
JILIN-1 GAOFEN 3E       
1 46457U 20065D   24282.86914074  .00043181  00000+0  13853-2 0  9994
2 46457  97.3266 326.1832 0008611 179.7933 180.3314 15.32162594224793
JILIN-1 GAOFEN 3F       
1 46458U 20065E   24282.84146003  .00045546  00000+0  14595-2 0  9993
2 46458  97.3198 324.8802 0009257 169.3170 190.8270 15.32180903224796
JILIN-1 GAOFEN 3G       
1 46459U 20065F   24282.87328704  .00045011  00000+0  14335-2 0  9996
2 46459  97.3313 327.3853 0009670 175.9115 184.2208 15.32377379224806
JILIN-1 GAOFEN 3H       
1 46460U 20065G   24282.88648494  .00043576  00000+0  14123-2 0  9999
2 46460  97.3211 325.0759 0009235 172.7059 187.4318 15.31827404224797
JILIN-1 GAOFEN 3J       
1 46462U 20065J   24282.84087357  .00047166  00000+0  14949-2 0  9997
2 46462  97.3248 326.1641 0009057 169.1725 190.9714 15.32525791224809
HAIYANG-2C              
1 46469U 20066A   24282.85287348  .00000130  00000+0  19176-3 0  9996
2 46469  65.9962 309.8222 0006016 241.1883 118.8582 13.83373986204240
HJ-2A                   
1 46478U 20067A   24282.82067837  .00004798  00000+0  69505-3 0  9998
2 46478  97.9335   2.8855 0004831  98.9303 261.2454 14.76540419217301
HJ-2B                   
1 46479U 20067B   24282.85625770  .00005076  00000+0  73463-3 0  9996
2 46479  97.9379   3.5422 0000882 134.5710 225.5572 14.76557185217312
GONETS-M 17             
1 46486U 20068A   24282.83859657  .00000065  00000+0  39811-3 0  9998
2 46486  82.5036  10.9132 0021753 299.7458  60.1457 12.42878357182597
GONETS-M 18             
1 46487U 20068B   24282.88444848  .00000057  00000+0  33970-3 0  9997
2 46487  82.4991  10.2383 0018925 296.1532  63.7601 12.42868230182587
GONETS-M 19             
1 46488U 20068C   24282.85936392  .00000062  00000+0  37816-3 0  9994
2 46488  82.5015  10.5762 0012774 312.6576  47.3426 12.42892688182686
MEZNSAT                 
1 46489U 20068D   24282.87191684  .00076733  00000+0  21179-2 0  9996
2 46489  97.8209 254.7633 0005225 237.0774 122.9967 15.36778845222165
YARILO 1                
1 46490U 20068E   24282.85863797  .00107610  00000+0  24763-2 0  9998
2 46490  97.8219 256.6131 0004150 214.2216 145.8763 15.42218142222272
YARILO 2                
1 46491U 20068F   24282.84033235  .00124148  00000+0  26957-2 0  9996
2 46491  97.8156 256.3270 0003428 206.0101 154.0974 15.43889534222257
LACUNASAT-3             
1 46492U 20068G   24282.88343433  .00126471  00000+0  25316-2 0  9994
2 46492  97.8169 257.6989 0003900 197.0644 163.0474 15.46277467222332
DEKART                  
1 46493U 20068H   24282.87454548  .00025053  00000+0  12099-2 0  9992
2 46493  97.8298 246.9999 0011080 288.2841  71.7187 15.18590171221624
NORBI                   
1 46494U 20068J   24282.87136527  .00031784  00000+0  14278-2 0  9996
2 46494  97.8298 248.2434 0009869 284.9507  75.0634 15.21050464221701
SALSAT                  
1 46495U 20068K   24282.39781819  .00067851  00000+0  34949-2 0  9995
2 46495  97.8301 244.8152 0010730 289.5840  70.4233 15.16068071221448
